NORAD_CAT_ID,OBJECT_NAME,OBJECT_TYPE,EPOCH,MEAN_MOTION,ECCENTRICITY,INCLINATION,RA_OF_ASC_NODE,ARG_OF_PERICENTER,MEAN_ANOMALY,BSTAR,MEAN_MOTION_DOT,MEAN_MOTION_DDOT,TLE_LINE0,TLE_LINE1,TLE_LINE2,SEMIMAJOR_AXIS,PERIOD,APOGEE,PERIGEE,DECAYED
53703.0,STARLINK-4731,PAYLOAD,2024-01-02 14:20:44,15.08842779,0.0001392,53.2162,222.1512,91.4533,268.6619,6.7598e-05,7.88e-06,0.0,0 STARLINK-4731,1 53703U 22107D   24002.59773628  .00000788  00000-0  67598-4 0  9997,2 53703  53.2162 222.1512 0001392  91.4533 268.6619 15.08842779 74521,6917.872,95.437,540.7,538.774,0.0
53703.0,STARLINK-4731,PAYLOAD,2024-01-02 19:06:53,15.08841729,0.0001364,53.2158,221.26,90.261,269.8539,4.8709e-05,4.87e-06,0.0,0 STARLINK-4731,1 53703U 22107D   24002.79645643  .00000487  00000-0  48709-4 0  9993,2 53703  53.2158 221.2600 0001364  90.2610 269.8539 15.08841729 73804,6917.875,95.437,540.684,538.797,0.0
53703.0,STARLINK-4731,PAYLOAD,2024-01-02 20:42:16,15.08842305,0.0001365,53.2159,220.9626,88.5825,271.5324,4.9037e-05,4.93e-06,0.0,0 STARLINK-4731,1 53703U 22107D   24002.86269564  .00000493  00000-0  49037-4 0  9997,2 53703  53.2159 220.9626 0001365  88.5825 271.5324 15.08842305 74565,6917.873,95.437,540.683,538.794,0.0
53703.0,STARLINK-4731,PAYLOAD,2024-01-02 23:53:03,15.08843467,0.000137,53.2159,220.3676,90.2783,269.8367,5.4924e-05,5.86e-06,0.0,0 STARLINK-4731,1 53703U 22107D   24002.99517427  .00000586  00000-0  54924-4 0  9999,2 53703  53.2159 220.3676 0001370  90.2783 269.8367 15.08843467 74582,6917.87,95.437,540.683,538.787,0.0
53703.0,STARLINK-4731,PAYLOAD,2024-01-03 20:33:03,15.08837118,0.0001337,53.2158,216.5015,94.1061,266.0084,-4.4749e-05,-1e-05,0.0,0 STARLINK-4731,1 53703U 22107D   24003.85629128 -.00001000  00000-0 -44749-4 0  9995,2 53703  53.2158 216.5015 0001337  94.1061 266.0084 15.08837118 74716,6917.889,95.438,540.679,538.829,0.0
53703.0,STARLINK-4731,PAYLOAD,2024-01-03 23:43:49,15.08836673,0.000133,53.2158,215.9066,94.1012,266.0132,-4.9591e-05,-1.077e-05,0.0,0 STARLINK-4731,1 53703U 22107D   24003.98877140 -.00001077  00000-0 -49591-4 0  9992,2 53703  53.2158 215.9066 0001330  94.1012 266.0132 15.08836673 73981,6917.891,95.438,540.676,538.835,0.0
53703.0,STARLINK-4731,PAYLOAD,2024-01-04 20:23:50,15.08834822,0.0001362,53.2158,212.0407,89.3773,270.7376,-1.2968e-05,-4.94e-06,0.0,0 STARLINK-4731,1 53703U 22107D   24004.84989354 -.00000494  00000-0 -12968-4 0  9999,2 53703  53.2158 212.0407 0001362  89.3773 270.7376 15.08834822 74867,6917.896,95.438,540.703,538.819,0.0
53703.0,STARLINK-4731,PAYLOAD,2024-01-05 13:53:05,15.08826424,0.0001366,53.2158,208.7693,86.9015,273.2133,9.6193e-05,1.243e-05,0.0,0 STARLINK-4731,1 53703U 22107D   24005.57853488  .00001243  00000-0  96193-4 0  9991,2 53703  53.2158 208.7693 0001366  86.9015 273.2133 15.08826424 74972,6917.922,95.438,540.732,538.842,0.0
53703.0,STARLINK-4731,PAYLOAD,2024-01-05 20:14:37,15.08829119,0.0001374,53.2158,207.5799,87.0749,273.04,0.00011424,1.53e-05,0.0,0 STARLINK-4731,1 53703U 22107D   24005.84349527  .00001530  00000-0  11424-3 0  9997,2 53703  53.2158 207.5799 0001374  87.0749 273.0400 15.08829119 74262,6917.914,95.438,540.729,538.828,0.0
53703.0,STARLINK-4731,PAYLOAD,2024-01-05 21:50:01,15.08829606,0.0001376,53.2158,207.2826,87.0169,273.098,0.00011747,1.582e-05,0.0,0 STARLINK-4731,1 53703U 22107D   24005.90973550  .00001582  00000-0  11747-3 0  9998,2 53703  53.2158 207.2826 0001376  87.0169 273.0980 15.08829606 75027,6917.912,95.438,540.729,538.825,0.0
53703.0,STARLINK-4731,PAYLOAD,2024-01-06 18:30:01,15.08836434,0.0001363,53.2158,203.4166,86.9178,273.197,0.00013192,1.812e-05,0.0,0 STARLINK-4731,1 53703U 22107D   24006.77085647  .00001812  00000-0  13192-3 0  9997,2 53703  53.2158 203.4166 0001363  86.9178 273.1970 15.08836434 75157,6917.891,95.438,540.699,538.813,0.0
53703.0,STARLINK-4731,PAYLOAD,2024-01-06 23:16:11,15.08836476,0.0001366,53.2158,202.5246,86.1477,273.9671,0.00012486,1.7e-05,0.0,0 STARLINK-4731,1 53703U 22107D   24006.96957705  .00001700  00000-0  12486-3 0  9992,2 53703  53.2158 202.5246 0001366  86.1477 273.9671 15.08836476 74435,6917.891,95.438,540.701,538.811,0.0
53703.0,STARLINK-4731,PAYLOAD,2024-01-07 19:56:12,15.08837175,0.0001372,53.2162,198.6583,83.812,276.3028,9.0554e-05,1.153e-05,0.0,0 STARLINK-4731,1 53703U 22107D   24007.83070142  .00001153  00000-0  90554-4 0  9995,2 53703  53.2162 198.6583 0001372  83.8120 276.3028 15.08837175 75313,6917.889,95.438,540.703,538.805,0.0
53703.0,STARLINK-4731,PAYLOAD,2024-01-08 11:50:04,15.08838481,0.0001373,53.2163,195.6847,82.553,277.5618,5.8371e-05,6.41e-06,0.0,0 STARLINK-4731,1 53703U 22107D   24008.49310262  .00000641  00000-0  58371-4 0  9990,2 53703  53.2163 195.6847 0001373  82.5530 277.5618 15.08838481 74662,6917.885,95.438,540.7,538.8,0.0
53703.0,STARLINK-4731,PAYLOAD,2024-01-08 19:46:59,15.08840436,0.0001365,53.2162,194.1985,82.3609,277.7538,6.189e-05,6.97e-06,0.0,0 STARLINK-4731,1 53703U 22107D   24008.82430117  .00000697  00000-0  61890-4 0  9990,2 53703  53.2162 194.1985 0001365  82.3609 277.7538 15.08840436 75469,6917.879,95.438,540.688,538.8,0.0
53703.0,STARLINK-4731,PAYLOAD,2024-01-09 11:40:51,15.08838825,0.0001384,53.2162,191.2256,78.1898,281.925,8.3454e-05,1.04e-05,0.0,0 STARLINK-4731,1 53703U 22107D   24009.48670280  .00001040  00000-0  83454-4 0  9993,2 53703  53.2162 191.2256 0001384  78.1898 281.9250 15.08838825 75560,6917.884,95.438,540.706,538.792,0.0
53703.0,STARLINK-4731,PAYLOAD,2024-01-09 19:37:46,15.08841707,0.0001371,53.2161,189.7387,78.8104,281.3042,0.00010349,1.36e-05,0.0,0 STARLINK-4731,1 53703U 22107D   24009.81790099  .00001360  00000-0  10349-3 0  9998,2 53703  53.2161 189.7387 0001371  78.8104 281.3042 15.08841707 74867,6917.875,95.437,540.689,538.792,0.0
53703.0,STARLINK-4731,PAYLOAD,2024-01-10 11:31:38,15.08841234,0.0001346,53.2158,186.7651,80.9603,279.1541,8.6855e-05,1.095e-05,0.0,0 STARLINK-4731,1 53703U 22107D   24010.48030159  .00001095  00000-0  86855-4 0  9998,2 53703  53.2158 186.7651 0001346  80.9603 279.1541 15.08841234 75713,6917.877,95.437,540.673,538.81,0.0
53703.0,STARLINK-4731,PAYLOAD,2024-01-11 14:33:10,15.08845892,0.0001299,53.2155,181.7098,83.1536,276.9604,0.00010179,1.333e-05,0.0,0 STARLINK-4731,1 53703U 22107D   24011.60637706  .00001333  00000-0  10179-3 0  9994,2 53703  53.2155 181.7098 0001299  83.1536 276.9604 15.08845892 75884,6917.862,95.437,540.626,538.829,0.0
53703.0,STARLINK-4731,PAYLOAD,2024-01-11 17:43:57,15.08847192,0.0001319,53.2156,181.1152,80.1923,279.9218,0.00010842,1.438e-05,0.0,0 STARLINK-4731,1 53703U 22107D   24011.73885580  .00001438  00000-0  10842-3 0  9996,2 53703  53.2156 181.1152 0001319  80.1923 279.9218 15.08847192 75159,6917.858,95.437,540.636,538.811,0.0
53703.0,STARLINK-4731,PAYLOAD,2024-01-11 20:54:43,15.08849679,0.0001304,53.2155,180.52,85.2731,274.841,0.0001256,1.712e-05,0.0,0 STARLINK-4731,1 53703U 22107D   24011.87133309  .00001712  00000-0  12560-3 0  9990,2 53703  53.2155 180.5200 0001304  85.2731 274.8410 15.08849679 75927,6917.851,95.437,540.618,538.814,0.0
53703.0,STARLINK-4731,PAYLOAD,2024-01-12 11:13:12,15.0884133,0.0001603,53.2154,177.842,88.7405,271.3771,2.6164e-05,1.28e-06,0.0,0 STARLINK-4731,1 53703U 22107D   24012.46750164  .00000128  00000-0  26164-4 0  9996,2 53703  53.2154 177.8420 0001603  88.7405 271.3771 15.08841330 75262,6917.876,95.437,540.85,538.632,0.0
53703.0,STARLINK-4731,PAYLOAD,2024-01-12 14:23:58,15.08840868,0.0001574,53.2157,177.2467,109.1582,250.9581,7.5756e-06,-1.67e-06,0.0,0 STARLINK-4731,1 53703U 22107D   24012.59998109 -.00000167  00000-0  75756-5 0  9999,2 53703  53.2157 177.2467 0001574 109.1582 250.9581 15.08840868 76034,6917.878,95.437,540.832,538.654,0.0
53703.0,STARLINK-4731,PAYLOAD,2024-01-12 15:59:21,15.08840687,0.0001456,53.2159,176.9487,114.3183,245.7962,-5.1676e-06,-3.7e-06,0.0,0 STARLINK-4731,1 53703U 22107D   24012.66622093 -.00000370  00000-0 -51676-5 0  9995,2 53703  53.2159 176.9487 0001456 114.3183 245.7962 15.08840687 76043,6917.878,95.438,540.751,538.736,0.0
53703.0,STARLINK-4731,PAYLOAD,2024-01-13 14:14:45,15.08843325,0.0001214,53.2152,172.783,106.1169,253.9957,1.3e-05,-8.1e-07,0.0,0 STARLINK-4731,1 53703U 22107D   24013.59358083 -.00000081  00000-0  13000-4 0  9999,2 53703  53.2152 172.7830 0001214 106.1169 253.9957 15.08843325 76189,6917.87,95.437,540.575,538.895,0.0
53703.0,STARLINK-4731,PAYLOAD,2024-01-13 15:50:08,15.08844888,0.0001276,53.2151,172.4857,106.353,253.7602,2.2751e-05,7.4e-07,0.0,0 STARLINK-4731,1 53703U 22107D   24013.65981961  .00000074  00000-0  22751-4 0  9997,2 53703  53.2151 172.4857 0001276 106.3530 253.7602 15.08844888 75444,6917.865,95.437,540.613,538.848,0.0
53703.0,STARLINK-4731,PAYLOAD,2024-01-14 10:54:46,15.0883406,0.0001245,53.2165,168.9242,83.6952,276.4182,9.7804e-05,1.269e-05,0.0,0 STARLINK-4731,1 53703U 22107D   24014.45470829  .00001269  00000-0  97804-4 0  9990,2 53703  53.2165 168.9242 0001245  83.6952 276.4182 15.08834060 75567,6917.899,95.438,540.625,538.902,0.0
53703.0,STARLINK-4731,PAYLOAD,2024-01-14 14:05:32,15.08836425,0.0001241,53.2165,168.3295,77.734,282.379,0.00011432,1.532e-05,0.0,0 STARLINK-4731,1 53703U 22107D   24014.58718744  .00001532  00000-0  11432-3 0  9990,2 53703  53.2165 168.3295 0001241  77.7340 282.3790 15.08836425 76334,6917.891,95.438,540.615,538.898,0.0
53703.0,STARLINK-4731,PAYLOAD,2024-01-14 20:27:05,15.08842761,0.0001251,53.2159,167.1371,85.3507,274.7628,0.00015523,2.184e-05,0.0,0 STARLINK-4731,1 53703U 22107D   24014.85214281  .00002184  00000-0  15523-3 0  9996,2 53703  53.2159 167.1371 0001251  85.3507 274.7628 15.08842761 76379,6917.872,95.437,540.602,538.872,0.0
53703.0,STARLINK-4731,PAYLOAD,2024-01-15 10:45:33,15.08840941,0.0001264,53.2157,164.4593,78.3195,281.7938,9.4879e-05,1.222e-05,0.0,0 STARLINK-4731,1 53703U 22107D   24015.44830686  .00001222  00000-0  94879-4 0  9999,2 53703  53.2157 164.4593 0001264  78.3195 281.7938 15.08840941 75719,6917.878,95.437,540.617,538.868,0.0
